{"type": "FeatureCollection", "features": [ {"type": "Feature", "properties": {"norad_id": 30096, "name": "FENGYUN 1C DEB", "group": "fengyun-1c-debris", "lat": 73.33596466841877, "lon": -84.94932324693391, "alt_km": 821.0449230382947, "timestamp": "2025-12-09T09:46:47.919377+00:00", "meta": {"OBJECT_NAME": "FENGYUN 1C DEB", "OBJECT_ID": "1999-025QZ", "EPOCH": "2025-12-08T23:13:32.861280", "MEAN_MOTION": 14.31679859, "ECCENTRICITY": 0.00790114, "INCLINATION": 99.148, "RA_OF_ASC_NODE": 62.0178, "ARG_OF_PERICENTER": 243.4168, "MEAN_ANOMALY": 115.8902, "EPHEMERIS_TYPE": 0, "CLASSIFICATION_TYPE": "U", "NORAD_CAT_ID": 30096, "ELEMENT_SET_NO": 999, "REV_AT_EPOCH": 98492, "BSTAR": 0.00048990472, "MEAN_MOTION_DOT": 1.303e-05, "MEAN_MOTION_DDOT": 0}, "tle": {"line1": "1 30096U 99025QZ  25342.96774145  .00001303  00000+0  48990-3 0  9991", "line2": "2 30096  99.1480  62.0178 0079011 243.4168 115.8902 14.31679859984922"}}, "geometry": {"type": "Point", "coordinates": [-84.94932324693391, 73.33596466841877]}}, {"type": "Feature", "properties": {"norad_id": 30099, "name": "FENGYUN 1C DEB", "group": "fengyun-1c-debris", "lat": 54.68185531563914, "lon": 43.55212640546668, "alt_km": 841.5680440254628, "timestamp": "2025-12-09T09:46:47.919387+00:00", "meta": {"OBJECT_NAME": "FENGYUN 1C DEB", "OBJECT_ID": "1999-025RC", "EPOCH": "2025-12-08T17:16:15.485952", "MEAN_MOTION": 14.25927296, "ECCENTRICITY": 0.00609867, "INCLINATION": 98.541, "RA_OF_ASC_NODE": 55.1274, "ARG_OF_PERICENTER": 256.6354, "MEAN_ANOMALY": 229.7095, "EPHEMERIS_TYPE": 0, "CLASSIFICATION_TYPE": "U", "NORAD_CAT_ID": 30099, "ELEMENT_SET_NO": 999, "REV_AT_EPOCH": 98132, "BSTAR": 0.0004521447, "MEAN_MOTION_DOT": 1.055e-05, "MEAN_MOTION_DDOT": 0}, "tle": {"line1": "1 30099U 99025RC  25342.71962368  .00001055  00000+0  45214-3 0  9993", "line2": "2 30099  98.5410  55.1274 0060986 256.6354 229.7095 14.25927296981328"}}, "geometry": {"type": "Point", "coordinates": [43.55212640546668, 54.68185531563914]}}, {"type": "Feature", "properties": {"norad_id": 30102, "name": "FENGYUN 1C DEB", "group": "fengyun-1c-debris", "lat": -75.20719694452505, "lon": 25.275488957227317, "alt_km": 819.9299399552738, "timestamp": "2025-12-09T09:46:47.919398+00:00", "meta": {"OBJECT_NAME": "FENGYUN 1C DEB", "OBJECT_ID": "1999-025RF", "EPOCH": "2025-12-08T19:46:46.306848", "MEAN_MOTION": 14.22121584, "ECCENTRICITY": 0.01419393, "INCLINATION": 98.3792, "RA_OF_ASC_NODE": 350.7941, "ARG_OF_PERICENTER": 11.6537, "MEAN_ANOMALY": 167.3796, "EPHEMERIS_TYPE": 0, "CLASSIFICATION_TYPE": "U", "NORAD_CAT_ID": 30102, "ELEMENT_SET_NO": 999, "REV_AT_EPOCH": 97902, "BSTAR": 0.00064076981, "MEAN_MOTION_DOT": 1.531e-05, "MEAN_MOTION_DDOT": 0}, "tle": {"line1": "1 30102U 99025RF  25342.82414707  .00001531  00000+0  64077-3 0  9996", "line2": "2 30102  98.3792 350.7941 0141939  11.6537 167.3796 14.22121584979021"}}, "geometry": {"type": "Point", "coordinates": [25.275488957227317, -75.20719694452505]}}, {"type": "Feature", "properties": {"norad_id": 30103, "name": "FENGYUN 1C DEB", "group": "fengyun-1c-debris", "lat": -69.63552641709065, "lon": 118.68751510180405, "alt_km": 840.7293619625334, "timestamp": "2025-12-09T09:46:47.919409+00:00", "meta": {"OBJECT_NAME": "FENGYUN 1C DEB", "OBJECT_ID": "1999-025RG", "EPOCH": "2025-12-08T22:47:08.611008", "MEAN_MOTION": 14.2484505, "ECCENTRICITY": 0.00640201, "INCLINATION": 99.2445, "RA_OF_ASC_NODE": 324.2306, "ARG_OF_PERICENTER": 130.5865, "MEAN_ANOMALY": 292.0718, "EPHEMERIS_TYPE": 0, "CLASSIFICATION_TYPE": "U", "NORAD_CAT_ID": 30103, "ELEMENT_SET_NO": 999, "REV_AT_EPOCH": 97865, "BSTAR": 0.00061448845, "MEAN_MOTION_DOT": 1.417e-05, "MEAN_MOTION_DDOT": 0}, "tle": {"line1": "1 30103U 99025RG  25342.94940522  .00001417  00000+0  61449-3 0  9992", "line2": "2 30103  99.2445 324.2306 0064020 130.5865 292.0718 14.24845050978659"}}, "geometry": {"type": "Point", "coordinates": [118.68751510180405, -69.63552641709065]}}, {"type": "Feature", "properties": {"norad_id": 30104, "name": "FENGYUN 1C DEB", "group": "fengyun-1c-debris", "lat": 81.42813323247508, "lon": 103.33819146802962, "alt_km": 752.6567122037541, "timestamp": "2025-12-09T09:46:47.919421+00:00", "meta": {"OBJECT_NAME": "FENGYUN 1C DEB", "OBJECT_ID": "1999-025RH", "EPOCH": "2025-12-08T13:26:45.098016", "MEAN_MOTION": 14.25646707, "ECCENTRICITY": 0.0073903, "INCLINATION": 98.3595, "RA_OF_ASC_NODE": 179.8186, "ARG_OF_PERICENTER": 120.386, "MEAN_ANOMALY": 302.2474, "EPHEMERIS_TYPE": 0, "CLASSIFICATION_TYPE": "U", "NORAD_CAT_ID": 30104, "ELEMENT_SET_NO": 999, "REV_AT_EPOCH": 97833, "BSTAR": 0.0011674, "MEAN_MOTION_DOT": 2.807e-05, "MEAN_MOTION_DDOT": 0}, "tle": {"line1": "1 30104U 99025RH  25342.56024419  .00002807  00000+0  11674-2 0  9997", "line2": "2 30104  98.3595 179.8186 0073903 120.3860 302.2474 14.25646707978335"}}, "geometry": {"type": "Point", "coordinates": [103.33819146802962, 81.42813323247508]}}, {"type": "Feature", "properties": {"norad_id": 30105, "name": "FENGYUN 1C DEB", "group": "fengyun-1c-debris", "lat": -67.3856573542477, "lon": 128.25365654487746, "alt_km": 966.9371440652521, "timestamp": "2025-12-09T09:46:47.919432+00:00", "meta": {"OBJECT_NAME": "FENGYUN 1C DEB", "OBJECT_ID": "1999-025RJ", "EPOCH": "2025-12-08T22:29:20.199840", "MEAN_MOTION": 14.21387754, "ECCENTRICITY": 0.01998332, "INCLINATION": 98.5934, "RA_OF_ASC_NODE": 329.0808, "ARG_OF_PERICENTER": 84.9266, "MEAN_ANOMALY": 277.4687, "EPHEMERIS_TYPE": 0, "CLASSIFICATION_TYPE": "U", "NORAD_CAT_ID": 30105, "ELEMENT_SET_NO": 999, "REV_AT_EPOCH": 97708, "BSTAR": 0.00043418654, "MEAN_MOTION_DOT": 1.117e-05, "MEAN_MOTION_DDOT": 0}, "tle": {"line1": "1 30105U 99025RJ  25342.93703935  .00001117  00000+0  43419-3 0  9992", "line2": "2 30105  98.5934 329.0808 0199833  84.9266 277.4687 14.21387754977081"}}, "geometry": {"type": "Point", "coordinates": [128.25365654487746, -67.3856573542477]}}, {"type": "Feature", "properties": {"norad_id": 30106, "name": "FENGYUN 1C DEB", "group": "fengyun-1c-debris", "lat": -9.8937457821559, "lon": 68.78237465150548, "alt_km": 587.4071652396797, "timestamp": "2025-12-09T09:46:47.919443+00:00", "meta": {"OBJECT_NAME": "FENGYUN 1C DEB", "OBJECT_ID": "1999-025RK", "EPOCH": "2025-12-08T16:51:06.028704", "MEAN_MOTION": 14.84661357, "ECCENTRICITY": 0.00473215, "INCLINATION": 98.9236, "RA_OF_ASC_NODE": 249.5639, "ARG_OF_PERICENTER": 211.5816, "MEAN_ANOMALY": 170.7213, "EPHEMERIS_TYPE": 0, "CLASSIFICATION_TYPE": "U", "NORAD_CAT_ID": 30106, "ELEMENT_SET_NO": 999, "REV_AT_EPOCH": 98485, "BSTAR": 0.0059529321, "MEAN_MOTION_DOT": 0.00051666, "MEAN_MOTION_DDOT": 0}, "tle": {"line1": "1 30106U 99025RK  25342.70215311  .00051666  00000+0  59529-2 0  9996", "line2": "2 30106  98.9236 249.5639 0047321 211.5816 170.7213 14.84661357984858"}}, "geometry": {"type": "Point", "coordinates": [68.78237465150548, -9.8937457821559]}}, {"type": "Feature", "properties": {"norad_id": 30107, "name": "FENGYUN 1C DEB", "group": "fengyun-1c-debris", "lat": -58.345077878160204, "lon": -154.27650638491542, "alt_km": 787.2000599843141, "timestamp": "2025-12-09T09:46:47.919454+00:00", "meta": {"OBJECT_NAME": "FENGYUN 1C DEB", "OBJECT_ID": "1999-025RL", "EPOCH": "2025-12-07T20:59:14.030016", "MEAN_MOTION": 14.14417841, "ECCENTRICITY": 0.01262495, "INCLINATION": 98.8476, "RA_OF_ASC_NODE": 38.8384, "ARG_OF_PERICENTER": 289.5841, "MEAN_ANOMALY": 69.1738, "EPHEMERIS_TYPE": 0, "CLASSIFICATION_TYPE": "U", "NORAD_CAT_ID": 30107, "ELEMENT_SET_NO": 999, "REV_AT_EPOCH": 97492, "BSTAR": 0.00016337934, "MEAN_MOTION_DOT": 2.92e-06, "MEAN_MOTION_DDOT": 0}, "tle": {"line1": "1 30107U 99025RL  25341.87446794  .00000292  00000+0  16338-3 0  9996", "line2": "2 30107  98.8476  38.8384 0126249 289.5841  69.1738 14.14417841974920"}}, "geometry": {"type": "Point", "coordinates": [-154.27650638491542, -58.345077878160204]}}, {"type": "Feature", "properties": {"norad_id": 30108, "name": "FENGYUN 1C DEB", "group": "fengyun-1c-debris", "lat": 65.25460738971334, "lon": 168.6530896648289, "alt_km": 804.7512899212697, "timestamp": "2025-12-09T09:46:47.919466+00:00", "meta": {"OBJECT_NAME": "FENGYUN 1C DEB", "OBJECT_ID": "1999-025RM", "EPOCH": "2025-12-08T23:24:48.777984", "MEAN_MOTION": 14.1716056, "ECCENTRICITY": 0.01978116, "INCLINATION": 98.6597, "RA_OF_ASC_NODE": 328.924, "ARG_OF_PERICENTER": 32.9562, "MEAN_ANOMALY": 35.6399, "EPHEMERIS_TYPE": 0, "CLASSIFICATION_TYPE": "U", "NORAD_CAT_ID": 30108, "ELEMENT_SET_NO": 999, "REV_AT_EPOCH": 97545, "BSTAR": 0.00052508073, "MEAN_MOTION_DOT": 1.239e-05, "MEAN_MOTION_DDOT": 0}, "tle": {"line1": "1 30108U 99025RM  25342.97556456  .00001239  00000+0  52508-3 0  9997", "line2": "2 30108  98.6597 328.9240 0197811  32.9562  35.6399 14.17160560975456"}}, "geometry": {"type": "Point", "coordinates": [168.6530896648289, 65.25460738971334]}}, {"type": "Feature", "properties": {"norad_id": 30109, "name": "FENGYUN 1C DEB", "group": "fengyun-1c-debris", "lat": -36.23480253608731, "lon": 150.7607975214476, "alt_km": 730.7222595580924, "timestamp": "2025-12-09T09:46:47.919477+00:00", "meta": {"OBJECT_NAME": "FENGYUN 1C DEB", "OBJECT_ID": "1999-025RN", "EPOCH": "2025-12-08T22:51:22.192416", "MEAN_MOTION": 14.17538583, "ECCENTRICITY": 0.01672013, "INCLINATION": 98.5076, "RA_OF_ASC_NODE": 336.6222, "ARG_OF_PERICENTER": 243.3982, "MEAN_ANOMALY": 172.5942, "EPHEMERIS_TYPE": 0, "CLASSIFICATION_TYPE": "U", "NORAD_CAT_ID": 30109, "ELEMENT_SET_NO": 999, "REV_AT_EPOCH": 97498, "BSTAR": 0.00056351617, "MEAN_MOTION_DOT": 1.27e-05, "MEAN_MOTION_DDOT": 0}, "tle": {"line1": "1 30109U 99025RN  25342.95234019  .00001270  00000+0  56352-3 0  9990", "line2": "2 30109  98.5076 336.6222 0167201 243.3982 172.5942 14.17538583974984"}}, "geometry": {"type": "Point", "coordinates": [150.7607975214476, -36.23480253608731]}}]}